[{"OBJECT_NAME":"STARLINK-30973","OBJECT_ID":"2024-002J","EPOCH":"2026-03-09T16:03:24.974784","MEAN_MOTION":15.30180346,"ECCENTRICITY":0.00011247,"INCLINATION":53.1592,"RA_OF_ASC_NODE":229.9278,"ARG_OF_PERICENTER":82.5186,"MEAN_ANOMALY":277.5943,"EPHEMERIS_TYPE":0,"CLASSIFICATION_TYPE":"U","NORAD_CAT_ID":58713,"ELEMENT_SET_NO":999,"REV_AT_EPOCH":12201,"BSTAR":-4.3208601e-5,"MEAN_MOTION_DOT":-1.638e-5,"MEAN_MOTION_DDOT":0},{"OBJECT_NAME":"COSMOS 2251 DEB","OBJECT_ID":"1993-036BN","EPOCH":"2026-03-09T17:54:27.582912","MEAN_MOTION":15.31852549,"ECCENTRICITY":0.0043021,"INCLINATION":74.0291,"RA_OF_ASC_NODE":318.0178,"ARG_OF_PERICENTER":323.0874,"MEAN_ANOMALY":36.7369,"EPHEMERIS_TYPE":0,"CLASSIFICATION_TYPE":"U","NORAD_CAT_ID":33821,"ELEMENT_SET_NO":999,"REV_AT_EPOCH":76330,"BSTAR":0.0011195846,"MEAN_MOTION_DOT":0.00035571,"MEAN_MOTION_DDOT":0}]
